CCSDS_OMM_VERS = 2.0
CREATION_DATE  = 
ORIGINATOR     = 

OBJECT_NAME    = CORAL
OBJECT_ID      = 1998-067YA
CENTER_NAME    = EARTH
REF_FRAME      = TEME
TIME_SYSTEM    = UTC
MEAN_ELEMENT_THEORY = SGP/SGP4

EPOCH          = 2026-04-03T23:55:33.470688
MEAN_MOTION    = 15.58976627
ECCENTRICITY   = .00135456
INCLINATION    = 51.6285
RA_OF_ASC_NODE = 304.9022
ARG_OF_PERICENTER = 269.0855
MEAN_ANOMALY   = 90.8586

EPHEMERIS_TYPE = 0
CLASSIFICATION_TYPE = U
NORAD_CAT_ID   = 67684
ELEMENT_SET_NO = 999
REV_AT_EPOCH   = 873
BSTAR          = .18558783E-2
MEAN_MOTION_DOT = .149965E-2
MEAN_MOTION_DDOT = 0

CCSDS_OMM_VERS = 2.0
CREATION_DATE  = 
ORIGINATOR     = 

OBJECT_NAME    = GXIBA-1
OBJECT_ID      = 1998-067YB
CENTER_NAME    = EARTH
REF_FRAME      = TEME
TIME_SYSTEM    = UTC
MEAN_ELEMENT_THEORY = SGP/SGP4

EPOCH          = 2026-04-03T19:31:14.979648
MEAN_MOTION    = 15.54660633
ECCENTRICITY   = .00124395
INCLINATION    = 51.6298
RA_OF_ASC_NODE = 306.6778
ARG_OF_PERICENTER = 275.1790
MEAN_ANOMALY   = 84.7781

EPHEMERIS_TYPE = 0
CLASSIFICATION_TYPE = U
NORAD_CAT_ID   = 67685
ELEMENT_SET_NO = 999
REV_AT_EPOCH   = 869
BSTAR          = .1109261E-2
MEAN_MOTION_DOT = .75333E-3
MEAN_MOTION_DDOT = 0

CCSDS_OMM_VERS = 2.0
CREATION_DATE  = 
ORIGINATOR     = 

OBJECT_NAME    = UITMSAT-2
OBJECT_ID      = 1998-067YC
CENTER_NAME    = EARTH
REF_FRAME      = TEME
TIME_SYSTEM    = UTC
MEAN_ELEMENT_THEORY = SGP/SGP4

EPOCH          = 2026-04-03T19:04:30.995616
MEAN_MOTION    = 15.55773967
ECCENTRICITY   = .00094678
INCLINATION    = 51.6307
RA_OF_ASC_NODE = 306.5559
ARG_OF_PERICENTER = 249.4305
MEAN_ANOMALY   = 110.5671

EPHEMERIS_TYPE = 0
CLASSIFICATION_TYPE = U
NORAD_CAT_ID   = 67686
ELEMENT_SET_NO = 999
REV_AT_EPOCH   = 869
BSTAR          = .12027881E-2
MEAN_MOTION_DOT = .85147E-3
MEAN_MOTION_DDOT = 0

CCSDS_OMM_VERS = 2.0
CREATION_DATE  = 
ORIGINATOR     = 

OBJECT_NAME    = HMU-SAT2
OBJECT_ID      = 1998-067YD
CENTER_NAME    = EARTH
REF_FRAME      = TEME
TIME_SYSTEM    = UTC
MEAN_ELEMENT_THEORY = SGP/SGP4

EPOCH          = 2026-04-03T21:12:22.160448
MEAN_MOTION    = 15.54393032
ECCENTRICITY   = .00089988
INCLINATION    = 51.6307
RA_OF_ASC_NODE = 306.3995
ARG_OF_PERICENTER = 252.1797
MEAN_ANOMALY   = 107.8212

EPHEMERIS_TYPE = 0
CLASSIFICATION_TYPE = U
NORAD_CAT_ID   = 67687
ELEMENT_SET_NO = 999
REV_AT_EPOCH   = 862
BSTAR          = .10661401E-2
MEAN_MOTION_DOT = .71531E-3
MEAN_MOTION_DDOT = 0

CCSDS_OMM_VERS = 2.0
CREATION_DATE  = 
ORIGINATOR     = 

OBJECT_NAME    = LEOPARD
OBJECT_ID      = 1998-067YE
CENTER_NAME    = EARTH
REF_FRAME      = TEME
TIME_SYSTEM    = UTC
MEAN_ELEMENT_THEORY = SGP/SGP4

EPOCH          = 2026-04-03T23:54:16.960896
MEAN_MOTION    = 15.55297558
ECCENTRICITY   = .0009259
INCLINATION    = 51.6308
RA_OF_ASC_NODE = 305.6496
ARG_OF_PERICENTER = 250.2032
MEAN_ANOMALY   = 109.7961

EPHEMERIS_TYPE = 0
CLASSIFICATION_TYPE = U
NORAD_CAT_ID   = 67688
ELEMENT_SET_NO = 999
REV_AT_EPOCH   = 864
BSTAR          = .12462947E-2
MEAN_MOTION_DOT = .86711E-3
MEAN_MOTION_DDOT = 0

CCSDS_OMM_VERS = 2.0
CREATION_DATE  = 
ORIGINATOR     = 

OBJECT_NAME    = CREW DRAGON 12
OBJECT_ID      = 2026-031A
CENTER_NAME    = EARTH
REF_FRAME      = TEME
TIME_SYSTEM    = UTC
MEAN_ELEMENT_THEORY = SGP/SGP4

EPOCH          = 2026-04-04T01:39:43.591392
MEAN_MOTION    = 15.48758130
ECCENTRICITY   = .00062512
INCLINATION    = 51.6326
RA_OF_ASC_NODE = 306.8840
ARG_OF_PERICENTER = 269.7954
MEAN_ANOMALY   = 90.2318

EPHEMERIS_TYPE = 0
CLASSIFICATION_TYPE = U
NORAD_CAT_ID   = 67796
ELEMENT_SET_NO = 999
REV_AT_EPOCH   = 56023
BSTAR          = .22464475E-3
MEAN_MOTION_DOT = .11847E-3
MEAN_MOTION_DDOT = 0

CCSDS_OMM_VERS = 2.0
CREATION_DATE  = 
ORIGINATOR     = 

OBJECT_NAME    = PROGRESS-MS 33
OBJECT_ID      = 2026-058A
CENTER_NAME    = EARTH
REF_FRAME      = TEME
TIME_SYSTEM    = UTC
MEAN_ELEMENT_THEORY = SGP/SGP4

EPOCH          = 2026-04-04T01:39:43.591392
MEAN_MOTION    = 15.48758130
ECCENTRICITY   = .00062512
INCLINATION    = 51.6326
RA_OF_ASC_NODE = 306.8840
ARG_OF_PERICENTER = 269.7954
MEAN_ANOMALY   = 90.2318

EPHEMERIS_TYPE = 0
CLASSIFICATION_TYPE = U
NORAD_CAT_ID   = 68319
ELEMENT_SET_NO = 999
REV_AT_EPOCH   = 125
BSTAR          = .22464475E-3
MEAN_MOTION_DOT = .11847E-3
MEAN_MOTION_DDOT = 0

